{
  "norad_id": 52876,
  "name": "STARLINK-4200",
  "history": [
    {
      "epoch": "2026-03-28T20:04:28.976736Z",
      "apogee_km": 540.7070346207356,
      "perigee_km": 538.7427769112119,
      "latitude_deg": 5.034943932047084e-06,
      "longitude_deg": 160.79799216101665,
      "height_km": 540.7244801659236,
      "semi_major_axis_km": 6917.8619057659735,
      "eccentricity": 0.00014197,
      "inclination_deg": 53.2177,
      "raan_deg": 288.1699,
      "arg_perigee_deg": 96.0732,
      "mean_anomaly_deg": 264.0422,
      "mean_motion_rev_day": 15.08846047
    }
  ]
}